start=new Date('2021-10-24T00:00:00.000Z').valueOf();
sats=[{"SITE":"AFETR","ARG_OF_PERICENTER":"78.8634","OBJECT_NAME":"STARLINK-2722","FILE":"3181152","ELEMENT_SET_NO":"999","APOAPSIS":"548.483","TIME_SYSTEM":"UTC","MEAN_MOTION":"15.06383126","MEAN_MOTION_DDOT":"0.0000000000000","DECAY_DATE":null,"OBJECT_ID":"2021-040AW","MEAN_ANOMALY":"281.2552","NORAD_CAT_ID":"48472","COUNTRY_CODE":"US","BSTAR":"0.00008514400000","REF_FRAME":"TEME","GP_ID":"188025994","EPHEMERIS_TYPE":"0","CENTER_NAME":"EARTH","INCLINATION":"53.0501","CLASSIFICATION_TYPE":"U","PERIOD":"95.593","TLE_LINE1":"1 48472U 21040AW  21296.79269078  .00000986  00000-0  85144-4 0  9999","SEMIMAJOR_AXIS":"6925.400","RCS_SIZE":"LARGE","ECCENTRICITY":"0.00017590","RA_OF_ASC_NODE":"164.8663","PERIAPSIS":"546.047","MEAN_ELEMENT_THEORY":"SGP4","LAUNCH_DATE":"2021-05-09","REV_AT_EPOCH":"2564","EPOCH":"2021-10-23T19:01:28.483392","TLE_LINE2":"2 48472  53.0501 164.8663 0001759  78.8634 281.2552 15.06383126 25640","MEAN_MOTION_DOT":"0.00000986","OBJECT_TYPE":"PAYLOAD"},{"COUNTRY_CODE":"US","NORAD_CAT_ID":"48473","MEAN_ANOMALY":"297.6140","GP_ID":"188025881","REF_FRAME":"TEME","BSTAR":"0.00008986700000","EPHEMERIS_TYPE":"0","CLASSIFICATION_TYPE":"U","INCLINATION":"53.0566","CENTER_NAME":"EARTH","ARG_OF_PERICENTER":"62.5063","SITE":"AFETR","ELEMENT_SET_NO":"999","FILE":"3181152","APOAPSIS":"548.663","OBJECT_NAME":"STARLINK-2658","TIME_SYSTEM":"UTC","OBJECT_ID":"2021-040AX","DECAY_DATE":null,"MEAN_MOTION_DDOT":"0.0000000000000","MEAN_MOTION":"15.06401522","REV_AT_EPOCH":"2558","LAUNCH_DATE":"2021-05-09","PERIAPSIS":"545.755","MEAN_ELEMENT_THEORY":"SGP4","TLE_LINE2":"2 48473  53.0566 166.7818 0002099  62.5063 297.6140 15.06401522 25587","EPOCH":"2021-10-23T08:45:44.106048","OBJECT_TYPE":"PAYLOAD","MEAN_MOTION_DOT":"0.00001057","PERIOD":"95.592","ECCENTRICITY":"0.00020990","RCS_SIZE":"LARGE","SEMIMAJOR_AXIS":"6925.344","TLE_LINE1":"1 48473U 21040AX  21296.36509382  .00001057  00000-0  89867-4 0  9994","RA_OF_ASC_NODE":"166.7818"},{"TLE_LINE2":"2 48474  53.0481 165.4507 0001814  70.6434 289.4751 15.06385034 25622","EPOCH":"2021-10-23T15:55:41.506176","MEAN_MOTION_DOT":"0.00000777","OBJECT_TYPE":"PAYLOAD","REV_AT_EPOCH":"2562","PERIAPSIS":"546.003","MEAN_ELEMENT_THEORY":"SGP4","LAUNCH_DATE":"2021-05-09","SEMIMAJOR_AXIS":"6925.394","RCS_SIZE":"LARGE","ECCENTRICITY":"0.00018140","TLE_LINE1":"1 48474U 21040AY  21296.66367484  .00000777  00000-0  71104-4 0  9996","RA_OF_ASC_NODE":"165.4507","PERIOD":"95.593","EPHEMERIS_TYPE":"0","INCLINATION":"53.0481","CLASSIFICATION_TYPE":"U","CENTER_NAME":"EARTH","COUNTRY_CODE":"US","NORAD_CAT_ID":"48474","MEAN_ANOMALY":"289.4751","REF_FRAME":"TEME","GP_ID":"188026105","BSTAR":"0.00007110400000","TIME_SYSTEM":"UTC","DECAY_DATE":null,"OBJECT_ID":"2021-040AY","MEAN_MOTION":"15.06385034","MEAN_MOTION_DDOT":"0.0000000000000","SITE":"AFETR","ARG_OF_PERICENTER":"70.6434","OBJECT_NAME":"STARLINK-2697","APOAPSIS":"548.516","FILE":"3181152","ELEMENT_SET_NO":"999"},{"EPOCH":"2021-10-23T08:51:03.526848","TLE_LINE2":"2 48475  53.0555 166.7550 0001857  75.9140 284.2055 15.06399706 25582","MEAN_MOTION_DOT":"0.00001391","OBJECT_TYPE":"PAYLOAD","PERIAPSIS":"545.928","MEAN_ELEMENT_THEORY":"SGP4","LAUNCH_DATE":"2021-05-09","REV_AT_EPOCH":"2558","TLE_LINE1":"1 48475U 21040AZ  21296.36879082  .00001391  00000-0  11227-3 0  9998","SEMIMAJOR_AXIS":"6925.349","RCS_SIZE":"LARGE","ECCENTRICITY":"0.00018570","RA_OF_ASC_NODE":"166.7550","PERIOD":"95.592","EPHEMERIS_TYPE":"0","CENTER_NAME":"EARTH","INCLINATION":"53.0555","CLASSIFICATION_TYPE":"U","NORAD_CAT_ID":"48475","MEAN_ANOMALY":"284.2055","COUNTRY_CODE":"US","BSTAR":"0.00011227000000","GP_ID":"188026328","REF_FRAME":"TEME","TIME_SYSTEM":"UTC","MEAN_MOTION":"15.06399706","MEAN_MOTION_DDOT":"0.0000000000000","DECAY_DATE":null,"OBJECT_ID":"2021-040AZ","SITE":"AFETR","ARG_OF_PERICENTER":"75.9140","OBJECT_NAME":"STARLINK-2619","APOAPSIS":"548.500","FILE":"3181152","ELEMENT_SET_NO":"999"},{"PERIOD":"95.593","RA_OF_ASC_NODE":"164.9604","TLE_LINE1":"1 48476U 21040BA  21296.78901725  .00001020  00000-0  87419-4 0  9991","SEMIMAJOR_AXIS":"6925.398","RCS_SIZE":"LARGE","ECCENTRICITY":"0.00019540","LAUNCH_DATE":"2021-05-09","PERIAPSIS":"545.909","MEAN_ELEMENT_THEORY":"SGP4","REV_AT_EPOCH":"2564","OBJECT_TYPE":"PAYLOAD","MEAN_MOTION_DOT":"0.00001020","EPOCH":"2021-10-23T18:56:11.090400","TLE_LINE2":"2 48476  53.0367 164.9604 0001954  71.7465 288.3737 15.06384013 25640","ELEMENT_SET_NO":"999","FILE":"3181152","APOAPSIS":"548.616","OBJECT_NAME":"STARLINK-2723","ARG_OF_PERICENTER":"71.7465","SITE":"AFETR","MEAN_MOTION_DDOT":"0.0000000000000","MEAN_MOTION":"15.06384013","OBJECT_ID":"2021-040BA","DECAY_DATE":null,"TIME_SYSTEM":"UTC","BSTAR":"0.00008741900000","GP_ID":"188025661","REF_FRAME":"TEME","NORAD_CAT_ID":"48476","MEAN_ANOMALY":"288.3737","COUNTRY_CODE":"US","CENTER_NAME":"EARTH","CLASSIFICATION_TYPE":"U","INCLINATION":"53.0367","EPHEMERIS_TYPE":"0"},{"TLE_LINE2":"2 48478  53.0555 165.5326 0001920  69.4438 290.6757 15.06407117 25623","EPOCH":"2021-10-23T15:23:49.646112","MEAN_MOTION_DOT":"0.00000986","OBJECT_TYPE":"PAYLOAD","REV_AT_EPOCH":"2562","PERIAPSIS":"545.862","MEAN_ELEMENT_THEORY":"SGP4","LAUNCH_DATE":"2021-05-09","RCS_SIZE":"LARGE","ECCENTRICITY":"0.00019200","SEMIMAJOR_AXIS":"6925.327","TLE_LINE1":"1 48478U 21040BC  21296.64154683  .00000986  00000-0  85075-4 0  9997","RA_OF_ASC_NODE":"165.5326","PERIOD":"95.592","EPHEMERIS_TYPE":"0","INCLINATION":"53.0555","CLASSIFICATION_TYPE":"U","CENTER_NAME":"EARTH","COUNTRY_CODE":"US","MEAN_ANOMALY":"290.6757","NORAD_CAT_ID":"48478","GP_ID":"188026216","REF_FRAME":"TEME","BSTAR":"0.00008507500000","TIME_SYSTEM":"UTC","DECAY_DATE":null,"OBJECT_ID":"2021-040BC","MEAN_MOTION":"15.06407117","MEAN_MOTION_DDOT":"0.0000000000000","SITE":"AFETR","ARG_OF_PERICENTER":"69.4438","OBJECT_NAME":"STARLINK-2728","FILE":"3181152","APOAPSIS":"548.521","ELEMENT_SET_NO":"999"},{"MEAN_MOTION":"15.06385959","MEAN_MOTION_DDOT":"0.0000000000000","DECAY_DATE":null,"OBJECT_ID":"2021-040BD","TIME_SYSTEM":"UTC","OBJECT_NAME":"STARLINK-2755","FILE":"3181152","APOAPSIS":"548.354","ELEMENT_SET_NO":"999","SITE":"AFETR","ARG_OF_PERICENTER":"80.5797","CENTER_NAME":"EARTH","INCLINATION":"53.0555","CLASSIFICATION_TYPE":"U","EPHEMERIS_TYPE":"0","BSTAR":"-0.00001139000000","REF_FRAME":"TEME","GP_ID":"188025772","MEAN_ANOMALY":"279.5371","NORAD_CAT_ID":"48479","COUNTRY_CODE":"US","RA_OF_ASC_NODE":"166.7406","TLE_LINE1":"1 48479U 21040BD  21296.37248972 -.00000451  00000-0 -11390-4 0  9991","RCS_SIZE":"LARGE","SEMIMAJOR_AXIS":"6925.392","ECCENTRICITY":"0.00015840","PERIOD":"95.593","MEAN_MOTION_DOT":"-0.00000451","OBJECT_TYPE":"PAYLOAD","EPOCH":"2021-10-23T08:56:23.111808","TLE_LINE2":"2 48479  53.0555 166.7406 0001584  80.5797 279.5371 15.06385959 25586","PERIAPSIS":"546.160","MEAN_ELEMENT_THEORY":"SGP4","LAUNCH_DATE":"2021-05-09","REV_AT_EPOCH":"2558"},{"PERIOD":"95.593","TLE_LINE1":"1 48480U 21040BE  21296.65170960  .00001044  00000-0  89034-4 0  9992","RCS_SIZE":"LARGE","SEMIMAJOR_AXIS":"6925.390","ECCENTRICITY":"0.00017370","RA_OF_ASC_NODE":"175.4772","LAUNCH_DATE":"2021-05-09","PERIAPSIS":"546.052","MEAN_ELEMENT_THEORY":"SGP4","REV_AT_EPOCH":"2548","EPOCH":"2021-10-23T15:38:27.709440","TLE_LINE2":"2 48480  53.0549 175.4772 0001737  68.2337 291.8837 15.06386442 25488","OBJECT_TYPE":"PAYLOAD","MEAN_MOTION_DOT":"0.00001044","ARG_OF_PERICENTER":"68.2337","SITE":"AFETR","FILE":"3181152","APOAPSIS":"548.458","ELEMENT_SET_NO":"999","OBJECT_NAME":"STARLINK-2690","TIME_SYSTEM":"UTC","MEAN_MOTION_DDOT":"0.0000000000000","MEAN_MOTION":"15.06386442","OBJECT_ID":"2021-040BE","DECAY_DATE":null,"NORAD_CAT_ID":"48480","MEAN_ANOMALY":"291.8837","COUNTRY_CODE":"US","BSTAR":"0.00008903400000","GP_ID":"188026435","REF_FRAME":"TEME","EPHEMERIS_TYPE":"0","CENTER_NAME":"EARTH","CLASSIFICATION_TYPE":"U","INCLINATION":"53.0549"},{"PERIOD":"95.593","RA_OF_ASC_NODE":"175.4127","RCS_SIZE":"LARGE","ECCENTRICITY":"0.00018990","SEMIMAJOR_AXIS":"6925.389","TLE_LINE1":"1 48481U 21040BF  21296.66549797 -.00000113  00000-0  11313-4 0  9994","REV_AT_EPOCH":"2548","LAUNCH_DATE":"2021-05-09","MEAN_ELEMENT_THEORY":"SGP4","PERIAPSIS":"545.939","OBJECT_TYPE":"PAYLOAD","MEAN_MOTION_DOT":"-0.00000113","TLE_LINE2":"2 48481  53.0540 175.4127 0001899  67.8987 292.2204 15.06386671 25486","EPOCH":"2021-10-23T15:58:19.024608","FILE":"3181152","APOAPSIS":"548.570","ELEMENT_SET_NO":"999","OBJECT_NAME":"STARLINK-2706","SITE":"AFETR","ARG_OF_PERICENTER":"67.8987","OBJECT_ID":"2021-040BF","DECAY_DATE":null,"MEAN_MOTION_DDOT":"0.0000000000000","MEAN_MOTION":"15.06386671","TIME_SYSTEM":"UTC","REF_FRAME":"TEME","GP_ID":"188025995","BSTAR":"0.00001131300000","COUNTRY_CODE":"US","MEAN_ANOMALY":"292.2204","NORAD_CAT_ID":"48481","CLASSIFICATION_TYPE":"U","INCLINATION":"53.0540","CENTER_NAME":"EARTH","EPHEMERIS_TYPE":"0"},{"TLE_LINE1":"1 48482U 21040BG  21296.65905588  .00001210  00000-0  10013-3 0  9991","RCS_SIZE":"LARGE","ECCENTRICITY":"0.00017680","SEMIMAJOR_AXIS":"6925.354","RA_OF_ASC_NODE":"175.4500","PERIOD":"95.592","EPOCH":"2021-10-23T15:49:02.428032","TLE_LINE2":"2 48482  53.0551 175.4500 0001768  72.0881 288.0301 15.06398350 25488","MEAN_MOTION_DOT":"0.00001210","OBJECT_TYPE":"PAYLOAD","PERIAPSIS":"545.994","MEAN_ELEMENT_THEORY":"SGP4","LAUNCH_DATE":"2021-05-09","REV_AT_EPOCH":"2548","TIME_SYSTEM":"UTC","MEAN_MOTION":"15.06398350","MEAN_MOTION_DDOT":"0.0000000000000","DECAY_DATE":null,"OBJECT_ID":"2021-040BG","SITE":"AFETR","ARG_OF_PERICENTER":"72.0881","OBJECT_NAME":"STARLINK-2525","APOAPSIS":"548.443","FILE":"3181152","ELEMENT_SET_NO":"999","EPHEMERIS_TYPE":"0","CENTER_NAME":"EARTH","INCLINATION":"53.0551","CLASSIFICATION_TYPE":"U","NORAD_CAT_ID":"48482","MEAN_ANOMALY":"288.0301","COUNTRY_CODE":"US","BSTAR":"0.00010013000000","REF_FRAME":"TEME","GP_ID":"188025882"}];
